[{"OBJECT_NAME":"JINJUSAT-1B","OBJECT_ID":"2025-052A","EPOCH":"2026-03-09T15:55:38.242848","MEAN_MOTION":15.30194857,"ECCENTRICITY":0.00055504,"INCLINATION":97.4113,"RA_OF_ASC_NODE":325.4613,"ARG_OF_PERICENTER":82.193,"MEAN_ANOMALY":277.9941,"EPHEMERIS_TYPE":0,"CLASSIFICATION_TYPE":"U","NORAD_CAT_ID":63210,"ELEMENT_SET_NO":999,"REV_AT_EPOCH":5486,"BSTAR":0.00068430401,"MEAN_MOTION_DOT":0.00019955,"MEAN_MOTION_DDOT":0},{"OBJECT_NAME":"STARLINK-35117","OBJECT_ID":"2025-210L","EPOCH":"2026-03-09T22:20:03.113376","MEAN_MOTION":15.30194126,"ECCENTRICITY":9.174e-5,"INCLINATION":53.1593,"RA_OF_ASC_NODE":306.2643,"ARG_OF_PERICENTER":96.9851,"MEAN_ANOMALY":263.1254,"EPHEMERIS_TYPE":0,"CLASSIFICATION_TYPE":"U","NORAD_CAT_ID":65632,"ELEMENT_SET_NO":999,"REV_AT_EPOCH":2776,"BSTAR":0.00095663604,"MEAN_MOTION_DOT":0.00028076,"MEAN_MOTION_DDOT":0}]
